NORAD_CAT_ID,OBJECT_NAME,OBJECT_TYPE,EPOCH,MEAN_MOTION,ECCENTRICITY,INCLINATION,RA_OF_ASC_NODE,ARG_OF_PERICENTER,MEAN_ANOMALY,BSTAR,MEAN_MOTION_DOT,MEAN_MOTION_DDOT,TLE_LINE0,TLE_LINE1,TLE_LINE2,SEMIMAJOR_AXIS,PERIOD,APOGEE,PERIGEE,DECAYED
51892.0,STARLINK-3587,PAYLOAD,2024-06-23 13:42:39,15.08838343,0.0001338,53.217,280.8993,91.1201,268.9945,0.00026617,3.951e-05,0.0,0 STARLINK-3587,1 51892U 22022AS  24175.57129401  .00003951  00000-0  26617-3 0  9994,2 51892  53.2170 280.8993 0001338  91.1201 268.9945 15.08838343129023,6917.885,95.438,540.676,538.825,0.0
51892.0,STARLINK-3587,PAYLOAD,2024-06-24 11:58:03,15.0884094,0.0001339,53.2172,276.7357,98.0642,262.0502,0.00018938,2.727e-05,0.0,0 STARLINK-3587,1 51892U 22022AS  24176.49865379  .00002727  00000-0  18938-3 0  9994,2 51892  53.2172 276.7357 0001339  98.0642 262.0502 15.08840940129164,6917.878,95.437,540.669,538.816,0.0
51892.0,STARLINK-3587,PAYLOAD,2024-06-25 11:48:50,15.08838191,0.0001255,53.2166,272.2739,97.5583,262.5551,3.0892e-05,2.04e-06,0.0,0 STARLINK-3587,1 51892U 22022AS  24177.49225550  .00000204  00000-0  30892-4 0  9998,2 51892  53.2166 272.2739 0001255  97.5583 262.5551 15.08838191129318,6917.886,95.438,540.619,538.883,0.0
51892.0,STARLINK-3587,PAYLOAD,2024-06-25 13:24:14,15.08837372,0.0001235,53.2166,271.9767,94.6093,265.504,1.2702e-05,-8.6e-07,0.0,0 STARLINK-3587,1 51892U 22022AS  24177.55849591 -.00000086  00000-0  12702-4 0  9991,2 51892  53.2166 271.9767 0001235  94.6093 265.5040 15.08837372129324,6917.888,95.438,540.608,538.899,0.0
51892.0,STARLINK-3587,PAYLOAD,2024-06-26 11:39:37,15.08841076,0.0001185,53.2161,267.8161,91.6795,268.4333,0.00011172,1.491e-05,0.0,0 STARLINK-3587,1 51892U 22022AS  24178.48585484  .00001491  00000-0  11172-3 0  9991,2 51892  53.2161 267.8161 0001185  91.6795 268.4333 15.08841076129469,6917.877,95.437,540.562,538.922,0.0
51892.0,STARLINK-3587,PAYLOAD,2024-06-27 13:05:47,15.08843663,0.0001275,53.216,263.0655,115.6095,244.5029,-7.81e-05,-1.531e-05,0.0,0 STARLINK-3587,1 51892U 22022AS  24179.54569355 -.00001531  00000-0 -78100-4 0  9990,2 51892  53.2160 263.0655 0001275 115.6095 244.5029 15.08843663129623,6917.869,95.437,540.616,538.852,0.0
51892.0,STARLINK-3587,PAYLOAD,2024-06-28 11:21:12,15.08841978,0.0001318,53.2144,258.8896,68.7723,291.341,4.2524e-05,3.89e-06,0.0,0 STARLINK-3587,1 51892U 22022AS  24180.47305709  .00000389  00000-0  42524-4 0  9994,2 51892  53.2144 258.8896 0001318  68.7723 291.3410 15.08841978129764,6917.874,95.437,540.651,538.828,0.0
51892.0,STARLINK-3587,PAYLOAD,2024-06-28 17:42:43,15.08855377,0.0001256,53.2151,257.7017,113.2791,246.8334,0.000244,3.599e-05,0.0,0 STARLINK-3587,1 51892U 22022AS  24180.73800801  .00003599  00000-0  24400-3 0  9994,2 51892  53.2151 257.7017 0001256 113.2791 246.8334 15.08855377129800,6917.833,95.437,540.567,538.83,0.0
51892.0,STARLINK-3587,PAYLOAD,2024-06-28 22:28:53,15.0885311,0.000134,53.2163,256.8088,101.4996,258.6146,0.00026703,3.966e-05,0.0,0 STARLINK-3587,1 51892U 22022AS  24180.93673078  .00003966  00000-0  26703-3 0  9996,2 51892  53.2163 256.8088 0001340 101.4996 258.6146 15.08853110129839,6917.84,95.437,540.632,538.778,0.0
51892.0,STARLINK-3587,PAYLOAD,2024-06-29 04:50:26,15.08849286,0.0001928,53.2114,255.627,93.7044,266.4169,0.00010394,1.367e-05,0.0,0 STARLINK-3587,1 51892U 22022AS  24181.20169301  .00001367  00000-0  10394-3 0  9998,2 51892  53.2114 255.6270 0001928  93.7044 266.4169 15.08849286129879,6917.852,95.437,541.051,538.383,0.0
51892.0,STARLINK-3587,PAYLOAD,2024-06-29 11:11:59,15.08830855,0.000138,53.2127,254.4322,101.4106,258.7042,-2.5469e-05,-6.93e-06,0.0,0 STARLINK-3587,1 51892U 22022AS  24181.46666211 -.00000693  00000-0 -25469-4 0  9991,2 51892  53.2127 254.4322 0001380 101.4106 258.7042 15.08830855129917,6917.908,95.438,540.728,538.819,0.0
51892.0,STARLINK-3587,PAYLOAD,2024-06-30 04:41:13,15.08841238,0.0001695,53.2151,251.1591,124.6714,235.4438,6.5227e-05,7.5e-06,0.0,0 STARLINK-3587,1 51892U 22022AS  24182.19529910  .00000750  00000-0  65227-4 0  9994,2 51892  53.2151 251.1591 0001695 124.6714 235.4438 15.08841238130029,6917.877,95.437,540.914,538.569,0.0
51892.0,STARLINK-3587,PAYLOAD,2024-06-30 14:13:32,15.08841882,0.0001537,53.2159,249.3775,99.4958,260.6208,0.00010404,1.368e-05,0.0,0 STARLINK-3587,1 51892U 22022AS  24182.59274047  .00001368  00000-0  10404-3 0  9998,2 51892  53.2159 249.3775 0001537  99.4958 260.6208 15.08841882130080,6917.875,95.437,540.803,538.676,0.0
51892.0,STARLINK-3587,PAYLOAD,2024-07-01 10:53:34,15.08834167,0.0001398,53.216,245.5117,103.8684,256.2463,0.0002438,3.594e-05,0.0,0 STARLINK-3587,1 51892U 22022AS  24183.45386662  .00003594  00000-0  24380-3 0  9992,2 51892  53.2160 245.5117 0001398 103.8684 256.2463 15.08834167130218,6917.898,95.438,540.73,538.796,0.0
51892.0,STARLINK-3587,PAYLOAD,2024-07-01 14:04:20,15.08835227,0.0001492,53.2161,244.917,106.3946,253.721,0.00015794,2.226e-05,0.0,0 STARLINK-3587,1 51892U 22022AS  24183.58634609  .00002226  00000-0  15794-3 0  9993,2 51892  53.2161 244.9170 0001492 106.3946 253.7210 15.08835227130237,6917.895,95.438,540.792,538.728,0.0
51892.0,STARLINK-3587,PAYLOAD,2024-07-02 13:55:07,15.08831906,0.0001351,53.2163,240.4557,101.7109,258.4035,0.00014373,2e-05,0.0,0 STARLINK-3587,1 51892U 22022AS  24184.57994879  .00002000  00000-0  14373-3 0  9993,2 51892  53.2163 240.4557 0001351 101.7109 258.4035 15.08831906130386,6917.905,95.438,540.705,538.836,0.0
51892.0,STARLINK-3587,PAYLOAD,2024-07-03 10:35:08,15.08833639,0.000126,53.2157,236.5921,95.2681,264.8455,6.397e-05,7.3e-06,0.0,0 STARLINK-3587,1 51892U 22022AS  24185.44107023  .00000730  00000-0  63970-4 0  9993,2 51892  53.2157 236.5921 0001260  95.2681 264.8455 15.08833639130518,6917.9,95.438,540.636,538.893,0.0
51892.0,STARLINK-3587,PAYLOAD,2024-07-04 02:28:59,15.08837508,0.0001239,53.2155,233.6177,87.6985,272.4149,7.2211e-05,8.61e-06,0.0,0 STARLINK-3587,1 51892U 22022AS  24186.10346915  .00000861  00000-0  72211-4 0  9995,2 51892  53.2155 233.6177 0001239  87.6985 272.4149 15.08837508130610,6917.888,95.438,540.61,538.896,0.0
51892.0,STARLINK-3587,PAYLOAD,2024-07-04 10:25:55,15.08838202,0.0001182,53.2149,232.1308,86.7189,273.3938,8.5266e-05,1.069e-05,0.0,0 STARLINK-3587,1 51892U 22022AS  24186.43466845  .00001069  00000-0  85266-4 0  9991,2 51892  53.2149 232.1308 0001182  86.7189 273.3938 15.08838202130669,6917.886,95.438,540.569,538.933,0.0
51892.0,STARLINK-3587,PAYLOAD,2024-07-04 19:58:13,15.08843392,0.00012,53.215,230.3466,86.9304,273.1825,0.00010596,1.399e-05,0.0,0 STARLINK-3587,1 51892U 22022AS  24186.83210466  .00001399  00000-0  10596-3 0  9990,2 51892  53.2150 230.3466 0001200  86.9304 273.1825 15.08843392130724,6917.87,95.437,540.565,538.905,0.0
51892.0,STARLINK-3587,PAYLOAD,2024-07-05 10:16:42,15.08837995,0.0001372,53.2163,227.6714,92.6971,267.4178,9.5211e-05,1.228e-05,0.0,0 STARLINK-3587,1 51892U 22022AS  24187.42826933  .00001228  00000-0  95211-4 0  9997,2 51892  53.2163 227.6714 0001372  92.6971 267.4178 15.08837995130816,6917.887,95.438,540.701,538.802,0.0
51892.0,STARLINK-3587,PAYLOAD,2024-07-05 19:49:00,15.0884704,0.00014,53.216,225.8863,84.3896,275.7256,0.00013329,1.834e-05,0.0,0 STARLINK-3587,1 51892U 22022AS  24187.82570254  .00001834  00000-0  13329-3 0  9995,2 51892  53.2160 225.8863 0001400  84.3896 275.7256 15.08847040130871,6917.859,95.437,540.692,538.755,0.0
51892.0,STARLINK-3587,PAYLOAD,2024-07-06 11:42:52,15.08840523,0.0001302,53.216,222.9123,85.7261,274.388,3.2893e-05,2.36e-06,0.0,0 STARLINK-3587,1 51892U 22022AS  24188.48810827  .00000236  00000-0  32893-4 0  9994,2 51892  53.2160 222.9123 0001302  85.7261 274.3880 15.08840523130978,6917.879,95.438,540.644,538.843,0.0
51892.0,STARLINK-3587,PAYLOAD,2024-07-06 19:39:48,15.08842286,0.0001401,53.216,221.4271,88.7631,271.3521,3.0249e-05,1.94e-06,0.0,0 STARLINK-3587,1 51892U 22022AS  24188.81930713  .00000194  00000-0  30249-4 0  9994,2 51892  53.2160 221.4271 0001401  88.7631 271.3521 15.08842286131024,6917.873,95.437,540.708,538.769,0.0
51892.0,STARLINK-3587,PAYLOAD,2024-07-07 08:22:53,15.0883881,0.0001396,53.2159,219.048,89.8993,270.2159,5.7893e-05,6.34e-06,0.0,0 STARLINK-3587,1 51892U 22022AS  24189.34922881  .00000634  00000-0  57893-4 0  9993,2 51892  53.2159 219.0480 0001396  89.8993 270.2159 15.08838810131105,6917.884,95.438,540.715,538.783,0.0
51892.0,STARLINK-3587,PAYLOAD,2024-07-08 08:13:40,15.08840273,0.0001412,53.2162,214.586,93.3305,266.7849,7.4558e-05,8.99e-06,0.0,0 STARLINK-3587,1 51892U 22022AS  24190.34282693  .00000899  00000-0  74558-4 0  9995,2 51892  53.2162 214.5860 0001412  93.3305 266.7849 15.08840273131255,6917.88,95.438,540.721,538.768,0.0
51892.0,STARLINK-3587,PAYLOAD,2024-07-09 08:04:27,15.08838182,0.0001328,53.2157,210.1258,90.6518,269.4626,5.6873e-05,6.17e-06,0.0,0 STARLINK-3587,1 51892U 22022AS  24191.33642848  .00000617  00000-0  56873-4 0  9995,2 51892  53.2157 210.1258 0001328  90.6518 269.4626 15.08838182131400,6917.886,95.438,540.67,538.832,0.0
51892.0,STARLINK-3587,PAYLOAD,2024-07-10 04:44:28,15.08835042,0.0001263,53.2153,206.2595,88.786,271.3277,1.5678e-07,-2.85e-06,0.0,0 STARLINK-3587,1 51892U 22022AS  24192.19755306 -.00000285  00000-0  15678-6 0  9996,2 51892  53.2153 206.2595 0001263  88.7860 271.3277 15.08835042131532,6917.896,95.438,540.634,538.887,0.0
51892.0,STARLINK-3587,PAYLOAD,2024-07-10 07:55:14,15.08834832,0.0001261,53.2153,205.6649,88.3049,271.8087,-4.4132e-06,-3.58e-06,0.0,0 STARLINK-3587,1 51892U 22022AS  24192.33003340 -.00000358  00000-0 -44132-5 0  9994,2 51892  53.2153 205.6649 0001261  88.3049 271.8087 15.08834832131550,6917.896,95.438,540.634,538.889,0.0
51892.0,STARLINK-3587,PAYLOAD,2024-07-11 07:46:01,15.08838344,0.0001235,53.2154,201.2043,86.674,273.4393,5.7717e-05,6.31e-06,0.0,0 STARLINK-3587,1 51892U 22022AS  24193.32363149  .00000631  00000-0  57717-4 0  9994,2 51892  53.2154 201.2043 0001235  86.6740 273.4393 15.08838344131708,6917.885,95.438,540.605,538.896,0.0
